[{"OBJECT_NAME":"STARLINK-4373","OBJECT_ID":"2022-084AG","EPOCH":"2026-03-09T18:21:34.706592","MEAN_MOTION":15.05647229,"ECCENTRICITY":0.00013425,"INCLINATION":97.6033,"RA_OF_ASC_NODE":131.2693,"ARG_OF_PERICENTER":153.0366,"MEAN_ANOMALY":207.0931,"EPHEMERIS_TYPE":0,"CLASSIFICATION_TYPE":"U","NORAD_CAT_ID":53219,"ELEMENT_SET_NO":999,"REV_AT_EPOCH":19939,"BSTAR":-1.803663e-6,"MEAN_MOTION_DOT":-8.7e-7,"MEAN_MOTION_DDOT":0},{"OBJECT_NAME":"THOR ABLESTAR DEB","OBJECT_ID":"1961-015EX","EPOCH":"2026-03-09T22:58:31.837152","MEAN_MOTION":15.04262729,"ECCENTRICITY":0.00191468,"INCLINATION":67.4961,"RA_OF_ASC_NODE":12.7011,"ARG_OF_PERICENTER":32.2919,"MEAN_ANOMALY":327.9391,"EPHEMERIS_TYPE":0,"CLASSIFICATION_TYPE":"U","NORAD_CAT_ID":461,"ELEMENT_SET_NO":999,"REV_AT_EPOCH":37086,"BSTAR":0.0020469071,"MEAN_MOTION_DOT":0.00028661,"MEAN_MOTION_DDOT":0}]
